[{"OBJECT_NAME":"OBJECT F","OBJECT_ID":"2023-072F","EPOCH":"2026-03-09T23:31:37.259904","MEAN_MOTION":15.29470958,"ECCENTRICITY":0.00062878,"INCLINATION":97.5173,"RA_OF_ASC_NODE":265.798,"ARG_OF_PERICENTER":19.0017,"MEAN_ANOMALY":341.1456,"EPHEMERIS_TYPE":0,"CLASSIFICATION_TYPE":"U","NORAD_CAT_ID":56748,"ELEMENT_SET_NO":999,"REV_AT_EPOCH":15460,"BSTAR":0.00043416252,"MEAN_MOTION_DOT":0.00012341,"MEAN_MOTION_DDOT":0},{"OBJECT_NAME":"STARLINK-30944","OBJECT_ID":"2023-183Q","EPOCH":"2026-03-09T22:00:01.999584","MEAN_MOTION":15.26727314,"ECCENTRICITY":0.00014662,"INCLINATION":43.0018,"RA_OF_ASC_NODE":40.0503,"ARG_OF_PERICENTER":255.9222,"MEAN_ANOMALY":58.3795,"EPHEMERIS_TYPE":0,"CLASSIFICATION_TYPE":"U","NORAD_CAT_ID":58451,"ELEMENT_SET_NO":999,"REV_AT_EPOCH":567,"BSTAR":0.0014828424,"MEAN_MOTION_DOT":0.00039715,"MEAN_MOTION_DDOT":0}]
